ONEWEB-0113             
1 48050U 21025J   24031.30627969  .00005591  00000+0  15273-1 0  9997
2 48050  87.9010 132.9688 0002161 103.3593 256.7777 13.13438695139653
ONEWEB-0112             
1 48051U 21025K   24031.29357636 -.00000087  00000+0 -27344-3 0  9998
2 48051  87.9007 132.9786 0001671 108.4682 251.6629 13.13468444139665
ONEWEB-0156             
1 48052U 21025L   24031.30310494  .00000015  00000+0  74560-5 0  9995
2 48052  87.9009 132.9682 0001516 105.4591 254.6705 13.13469770139646
ONEWEB-0161             
1 48053U 21025M   24031.35233567 -.00001929  00000+0 -53199-2 0  9995
2 48053  87.9008 132.9618 0001649 102.6127 257.5186 13.13450753139585
ONEWEB-0158             
1 48054U 21025N   24031.31421722 -.00000145  00000+0 -43174-3 0  9996
2 48054  87.9008 132.9645 0001824 110.4473 249.6852 13.13470363139707
ONEWEB-0157             
1 48055U 21025P   24031.33802186  .00000221  00000+0  57097-3 0  9998
2 48055  87.9008 132.9764 0001445 105.9134 254.2154 13.13468986139640
ONEWEB-0162             
1 48056U 21025Q   24031.30151311 -.00000223  00000+0 -64517-3 0  9992
2 48056  87.9006 132.9809 0001659 107.1006 253.0305 13.13468822139619
ONEWEB-0155             
1 48057U 21025R   24031.32215094  .00000001  00000+0 -32369-4 0  9998
2 48057  87.9007 132.9854 0001701 104.6219 255.5099 13.13470322139757
ONEWEB-0149             
1 48058U 21025S   24031.34278235  .00000245  00000+0  63542-3 0  9992
2 48058  87.9008 132.9788 0001584 114.9079 245.2215 13.13470291139562
ONEWEB-0148             
1 48059U 21025T   24031.30786206 -.00000653  00000+0 -18220-2 0  9998
2 48059  87.9008 132.9898 0001074 104.8341 255.2907 13.13471269139687
ONEWEB-0160             
1 48060U 21025U   24031.32373640 -.00000138  00000+0 -41238-3 0  9990
2 48060  87.9010 132.9830 0002579 119.0914 241.0473 13.13469728139636
ONEWEB-0163             
1 48061U 21025V   24031.30945429 -.00000190  00000+0 -55601-3 0  9996
2 48061  87.9005 132.9820 0001508  95.6917 264.4384 13.13470715139754
ONEWEB-0159             
1 48062U 21025W   24031.67923365 -.00000106  00000+0 -32613-3 0  9997
2 48062  87.9004 132.8930 0001361 103.6499 256.4781 13.13469916139727
ONEWEB-0164             
1 48063U 21025X   24031.28089395  .00000139  00000+0  34436-3 0  9990
2 48063  87.9008 132.9825 0001864 104.6809 255.4527 13.13469427139656
ONEWEB-0167             
1 48064U 21025Y   24031.31024278 -.00000308  00000+0 -87833-3 0  9993
2 48064  87.9009 132.9869 0001544 103.1366 256.9935 13.13473399139644
ONEWEB-0166             
1 48065U 21025Z   24031.33167424  .00000208  00000+0  53353-3 0  9994
2 48065  87.9004 132.9710 0001487 111.0868 249.0420 13.13469824139725
ONEWEB-0151             
1 48066U 21025AA  24031.33326651  .00000285  00000+0  74650-3 0  9992
2 48066  87.9007 132.9807 0001933 102.1195 258.0150 13.13469876139666
ONEWEB-0170             
1 48067U 21025AB  24031.72209268  .00000313  00000+0  82116-3 0  9998
2 48067  87.9007 132.9044 0002424 103.0541 257.0859 13.13469260139674
ONEWEB-0168             
1 48068U 21025AC  24031.32691065  .00000022  00000+0  25381-4 0  9994
2 48068  87.9011 132.9489 0001588 105.6235 254.5069 13.13469584139631
ONEWEB-0173             
1 48069U 21025AD  24031.31897680 -.00000235  00000+0 -67777-3 0  9997
2 48069  87.9011 132.9611 0001596  87.7566 272.3746 13.13470301139870
ONEWEB-0171             
1 48070U 21025AE  24031.35548078  .00000062  00000+0  13380-3 0  9994
2 48070  87.9014 132.9889 0001763 101.0527 259.0800 13.13469510139698
ONEWEB-0172             
1 48071U 21025AF  24031.33485510  .00000176  00000+0  44708-3 0  9998
2 48071  87.9011 132.9598 0001747  98.6487 261.4840 13.13470219140580
ONEWEB-0174             
1 48072U 21025AG  24031.31738036 -.00000172  00000+0 -50583-3 0  9997
2 48072  87.9009 132.9769 0001557 110.6201 249.5096 13.13467143139902
ONEWEB-0175             
1 48073U 21025AH  24031.34596489  .00000341  00000+0  90000-3 0  9999
2 48073  87.9007 132.9686 0002068  99.1026 261.0337 13.13468762139560
ONEWEB-0177             
1 48074U 21025AJ  24031.35865151  .00000024  00000+0  31630-4 0  9999
2 48074  87.9012 132.9718 0001244  90.4491 269.6780 13.13467914139753
ONEWEB-0178             
1 48075U 21025AK  24031.30007296 -.00000306  00000+0 -87221-3 0  9994
2 48075  87.9013 132.9912 0001508 100.5951 259.5348 13.13470035139798
ONEWEB-0108             
1 48076U 21025AL  24031.33643419  .00000192  00000+0  49221-3 0  9990
2 48076  87.9007 132.9746 0001766 115.2115 244.9197 13.13469493139727
ONEWEB-0169             
1 48077U 21025AM  24031.29200013 -.00000367  00000+0 -10393-2 0  9998
2 48077  87.9011 132.9892 0001691 115.6306 244.4998 13.13470097138374
ONEWEB-0176             
1 48210U 21031A   24031.20789729 -.00000005  00000+0 -46933-4 0  9991
2 48210  87.8964 102.4678 0001547 102.2557 257.8746 13.14497743134286
ONEWEB-0184             
1 48211U 21031B   24031.25705330  .00000171  00000+0  42612-3 0  9994
2 48211  87.8954 102.4469 0002689  85.0796 275.0641 13.14502420134268
ONEWEB-0179             
1 48212U 21031C   24031.22691307 -.00000141  00000+0 -41549-3 0  9997
2 48212  87.8956 102.4504 0001718 101.1042 259.0281 13.14502970134304
ONEWEB-0180             
1 48213U 21031D   24031.26021723  .00000279  00000+0  71730-3 0  9996
2 48213  87.8957 102.4460 0001677  97.9807 262.1513 13.14501979134190
ONEWEB-0218             
1 48214U 21031E   24031.20630521  .00000111  00000+0  26377-3 0  9995
2 48214  87.8973 102.4579 0002079  71.3440 288.7915 13.14495829134349
ONEWEB-0209             
1 48215U 21031F   24031.27132315 -.00000112  00000+0 -33539-3 0  9992
2 48215  87.8960 102.4764 0001627  99.4951 260.6363 13.14503530134354
ONEWEB-0198             
1 48216U 21031G   24031.25546385  .00000258  00000+0  66268-3 0  9991
2 48216  87.8955 102.4854 0001871  86.8267 273.3077 13.14501505134465
ONEWEB-0189             
1 48217U 21031H   24031.64873091  .00000054  00000+0  11116-3 0  9998
2 48217  87.8958 102.3833 0001866  86.0107 274.1236 13.14501174134259
ONEWEB-0196             
1 48218U 21031J   24031.24594179 -.00000134  00000+0 -39725-3 0  9999
2 48218  87.8959 102.4651 0001909  98.1500 261.9846 13.14502805134207
ONEWEB-0183             
1 48219U 21031K   24031.22056823 -.00000298  00000+0 -83879-3 0  9997
2 48219  87.8958 102.4873 0001720 101.1436 258.9887 13.14502076134297
ONEWEB-0185             
1 48220U 21031L   24031.24673031 -.00000124  00000+0 -36844-3 0  9995
2 48220  87.8956 102.4555 0001591  99.8406 260.2903 13.14502776134225
ONEWEB-0187             
1 48221U 21031M   24031.59718865 -.00000154  00000+0 -44910-3 0  9995
2 48221  87.8957 102.4162 0001666 100.4947 259.6370 13.14500979134282
ONEWEB-0192             
1 48222U 21031N   24031.27289581 -.00000067  00000+0 -21492-3 0  9992
2 48222  87.8962 102.4782 0001880  94.8153 265.3191 13.14501676134156
ONEWEB-0219             
1 48223U 21031P   24031.25229006  .00000276  00000+0  71029-3 0  9998
2 48223  87.8956 102.4572 0001620  97.0291 263.1023 13.14502089134358
ONEWEB-0202             
1 48224U 21031Q   24031.23328475 -.00000147  00000+0 -43022-3 0  9998
2 48224  87.8958 102.4819 0002124  77.6888 282.4479 13.14503672134337
ONEWEB-0204             
1 48225U 21031R   24031.19123523  .00000006  00000+0 -19598-4 0  9996
2 48225  87.8959 102.5024 0001719 118.0112 242.1192 13.14502795134225
ONEWEB-0205             
1 48226U 21031S   24031.24277570 -.00000179  00000+0 -51778-3 0  9992
2 48226  87.8954 102.4630 0001604  98.0883 262.0429 13.14502836134240
ONEWEB-0206             
1 48227U 21031T   24031.21580375 -.00000299  00000+0 -84177-3 0  9992
2 48227  87.8953 102.4610 0001554 100.6393 259.4912 13.14501957134192
ONEWEB-0182             
1 48228U 21031U   24031.21105967 -.00000050  00000+0 -16930-3 0  9990
2 48228  87.8959 102.4831 0001761 107.4674 252.6649 13.14502627134402
ONEWEB-0186             
1 48229U 21031V   24031.60274868 -.00000280  00000+0 -79014-3 0  9998
2 48229  87.8957 102.3697 0001805  95.0558 265.0778 13.14502546134403
ONEWEB-0181             
1 48230U 21031W   24031.58054850  .00000058  00000+0  12192-3 0  9999
2 48230  87.8963 102.4438 0001885  97.2836 262.8508 13.14502562134254
ONEWEB-0188             
1 48231U 21031X   24031.23801584 -.00000252  00000+0 -71314-3 0  9995
2 48231  87.8957 102.5090 0001746 101.7946 258.3380 13.14502514134112
ONEWEB-0220             
1 48232U 21031Y   24031.58214605  .00000099  00000+0  23328-3 0  9995
2 48232  87.8953 102.4130 0001459  96.4556 263.6740 13.14504093134428
ONEWEB-0165             
1 48233U 21031Z   24031.23007760 -.00000048  00000+0 -16291-3 0  9997
2 48233  87.8958 102.4908 0001739  95.7775 264.3553 13.14501685134337
ONEWEB-0199             
1 48234U 21031AA  24031.21422653 -.00000125  00000+0 -37188-3 0  9992
2 48234  87.8957 102.4652 0001719 100.5886 259.5437 13.14502489134238
ONEWEB-0203             
1 48235U 21031AB  24031.20474305  .00000078  00000+0  17670-3 0  9992
2 48235  87.8959 102.4682 0002366  97.8818 262.2580 13.14503683134244
ONEWEB-0197             
1 48236U 21031AC  24031.25624545  .00000245  00000+0  62701-3 0  9992
2 48236  87.8958 102.4649 0001678 115.1483 244.9821 13.14500900134169
ONEWEB-0194             
1 48237U 21031AD  24031.61543285 -.00000263  00000+0 -74334-3 0  9991
2 48237  87.8958 102.3857 0002183 104.5123 255.6249 13.14502333134384
ONEWEB-0193             
1 48238U 21031AE  24031.25069199  .00000195  00000+0  49049-3 0  9996
2 48238  87.8958 102.4667 0001929  97.2601 262.8748 13.14500989134289
ONEWEB-0191             
1 48239U 21031AF  24031.26180449  .00000096  00000+0  22517-3 0  9991
2 48239  87.8957 102.4525 0001917 102.1219 258.0125 13.14502336134149
ONEWEB-0195             
1 48240U 21031AG  24031.23880102 -.00000203  00000+0 -58092-3 0  9992
2 48240  87.8954 102.4566 0001741  86.3588 273.7741 13.14502387134122
